STARLINK-34198          
1 64388U 25127U   25266.11960129  .00045677  00000+0  16572-2 0  9997
2 64388  43.0067  45.7585 0002805 270.0866  89.9664 15.27616768 16849
STARLINK-34279          
1 64389U 25127V   25266.44411703  .00050106  00000+0  18174-2 0  9996
2 64389  43.0026  44.7615 0001308 254.8998 105.1709 15.27591767 16887
STARLINK-34292          
1 64390U 25127W   25266.09533802  .00042354  00000+0  15381-2 0  9997
2 64390  43.0041  46.4357 0000388 298.3156  61.7657 15.27616283 16839
STARLINK-34278          
1 64391U 25127X   25266.64783664  .00047507  00000+0  17237-2 0  9999
2 64391  43.0041  42.8396 0001390 269.0575  91.0117 15.27601589 16927
STARLINK-33802          
1 64392U 25127Y   25266.82614494  .00065706  00000+0  23723-2 0  9992
2 64392  43.0051  42.4689 0002070 262.9774  97.0842 15.27631254 16999
ZHANGHENG 1-02 (CSES-2) 
1 64393U 25128A   25266.54680112 -.00000057  00000+0  48748-6 0  9990
2 64393  97.3290  35.0346 0013319 314.9505  45.0650 15.20929011 15390
STARLINK-34419          
1 64412U 25129A   25267.05766683  .00003027  00000+0  26138-3 0  9993
2 64412  70.0008 134.7427 0003078 270.7482  89.3324 14.98329652 16342
STARLINK-34275          
1 64413U 25129B   25267.03696239  .00000486  00000+0  48578-4 0  9990
2 64413  70.0004 134.6781 0003016 266.6028  93.4786 14.98318193 16327
STARLINK-34225          
1 64414U 25129C   25266.99924730  .00008582  00000+0  72571-3 0  9999
2 64414  70.0011 134.9445 0002818 270.9845  89.0992 14.98355669 16318
STARLINK-34422          
1 64415U 25129D   25267.04514768  .00003483  00000+0  29949-3 0  9999
2 64415  70.0013 134.7093 0002692 269.2072  90.8779 14.98334190 16264
STARLINK-34514          
1 64416U 25129E   25267.00757608  .00006253  00000+0  53140-3 0  9996
2 64416  70.0002 134.5802 0002955 268.2612  91.8208 14.98331245 16323
STARLINK-34487          
1 64417U 25129F   25267.01175139  .00005805  00000+0  49373-3 0  9996
2 64417  70.0007 134.5915 0002753 257.6611 102.4240 14.98342190 16260
STARLINK-34461          
1 64418U 25129G   25267.33336806 -.00024363  00000+0 -20413-2 0  9997
2 64418  70.0003 134.0799 0002359 272.9665 110.4209 14.98327363  5721
STARLINK-34512          
1 64419U 25129H   25267.04931843  .00004566  00000+0  39012-3 0  9995
2 64419  70.0008 134.7171 0002792 269.0304  91.0535 14.98341142 16264
STARLINK-34503          
1 64420U 25129J   25267.05365988  .00003520  00000+0  30260-3 0  9994
2 64420  70.0010 134.7344 0002983 269.4186  90.6631 14.98337291 16267
STARLINK-34498          
1 64421U 25129K   25267.04097572  .00002372  00000+0  20654-3 0  9995
2 64421  70.0014 134.6955 0002182 268.7112  91.3797 14.98332316 16322
STARLINK-34434          
1 64422U 25129L   25266.99507941  .00018853  00000+0  15828-2 0  9992
2 64422  70.0012 134.9349 0003183 270.5515  89.5279 14.98348654 16316
STARLINK-34467          
1 64423U 25129M   25267.02846776  .00011358  00000+0  95775-3 0  9993
2 64423  70.0006 134.6499 0002854 271.9605  88.1227 14.98344846 16320
STARLINK-34468          
1 64424U 25129N   25266.99942215  .00006068  00000+0  51580-3 0  9992
2 64424  70.0011 134.9493 0003091 270.2687  89.8118 14.98340551 16315
STARLINK-34452          
1 64425U 25129P   25267.01609390  .00009061  00000+0  76607-3 0  9994
2 64425  70.0005 134.6035 0002555 276.9876  83.0993 14.98337594 16326
STARLINK-34432          
1 64426U 25129Q   25267.03262589  .00002371  00000+0  20643-3 0  9998
2 64426  70.0009 134.6576 0002691 266.1297  93.9554 14.98331706 16265
STARLINK-34480          
1 64427U 25129R   25267.01592625  .00010496  00000+0  88575-3 0  9999
2 64427  70.0003 134.5994 0002394 271.9746  88.1139 14.98346542 16322
STARLINK-34495          
1 64428U 25129S   25267.02427581  .00006748  00000+0  57267-3 0  9998
2 64428  70.0006 134.6365 0002813 269.9843  90.0994 14.98340076 16327
STARLINK-34501          
1 64429U 25129T   25267.05349513  .00005766  00000+0  49040-3 0  9999
2 64429  70.0005 134.7368 0002760 269.2946  90.7897 14.98345648 16328
STARLINK-34441          
1 64430U 25129U   25267.03679991  .00002924  00000+0  25270-3 0  9997
2 64430  70.0010 134.6785 0002711 269.3667  90.7182 14.98334644 16326
STARLINK-34524          
1 64431U 25129V   25267.08686110  .00006364  00000+0  54055-3 0  9999
2 64431  70.0004 134.4506 0002968 270.9814  89.1005 14.98340253 16278
STARLINK-34506          
1 64432U 25129W   25267.00340379  .00005204  00000+0  44346-3 0  9990
2 64432  70.0010 134.5608 0002532 259.4163 100.6711 14.98341639 16267
STARLINK-34451          
1 64433U 25129X   25267.05783346  .00005117  00000+0  43617-3 0  9994
2 64433  70.0007 134.7478 0002660 269.1892  90.8962 14.98344820 16263
STARLINK-34472          
1 64434U 25129Y   25267.04114504  .00010654  00000+0  89848-3 0  9996
2 64434  70.0008 134.6910 0003113 261.3622  98.7185 14.98367352 16320
STARLINK-34478          
1 64435U 25129Z   25267.02444234  .00002318  00000+0  20196-3 0  9990
2 64435  70.0006 134.6325 0002863 267.8618  92.2213 14.98331724 16264
STARLINK-34396          
1 64436U 25129AA  25267.04948694  .00008419  00000+0  71226-3 0  9990
2 64436  70.0011 134.7113 0003090 271.2951  88.7854 14.98343507 16262
STARLINK-34507          
1 64437U 25129AB  25267.07867893  .00002909  00000+0  25147-3 0  9994
2 64437  70.0012 134.4199 0002869 266.6192  93.4638 14.98334636 16337
STARLINK-34465          
1 64438U 25130A   25266.96240236  .00089500  00000+0  22239-2 0  9990
2 64438  53.1568 145.2989 0000716  83.2609 276.8477 15.39583893 15141
STARLINK-34456          
1 64439U 25130B   25267.08759078  .00085887  00000+0  21344-2 0  9994
2 64439  53.1567 144.6591 0000820  91.7791 268.3308 15.39600247 15169
STARLINK-34410          
1 64440U 25130C   25267.08294677  .00049067  00000+0  12299-2 0  9994
2 64440  53.1572 144.6284 0000662  95.0815 265.0265 15.39592011 15169
STARLINK-34453          
1 64441U 25130D   25267.07829367  .00101155  00000+0  25035-2 0  9993
2 64441  53.1578 144.6006 0001343  98.9061 261.2096 15.39643173 15166
STARLINK-34404          
1 64442U 25130E   25266.94382563  .00107135  00000+0  26549-2 0  9996
2 64442  53.1573 145.1818 0000849  54.0368 306.0716 15.39574120 15142
STARLINK-34403          
1 64443U 25130F   25267.05044157  .00077544  00000+0  19308-2 0  9999
2 64443  53.1577 144.4205 0001037  66.2060 293.9053 15.39589868 15168
STARLINK-34399          
1 64444U 25130G   25267.04579814  .00089622  00000+0  22264-2 0  9997
2 64444  53.1572 144.3911 0001094 104.5959 255.5168 15.39590831 15166
STARLINK-34398          
1 64445U 25130H   25266.93918398  .00046039  00000+0  11559-2 0  9999
2 64445  53.1567 145.1507 0000639  62.7593 297.3477 15.39570730 15145
STARLINK-34402          
1 64446U 25130J   25266.93454017  .00041445  00000+0  10419-2 0  9993
2 64446  53.1579 145.1221 0000618  82.9024 277.2051 15.39579220 15140
STARLINK-34450          
1 64447U 25130K   25267.05972938  .00070618  00000+0  17599-2 0  9995
2 64447  53.1575 144.4796 0000943  60.3764 299.7335 15.39606028 15161
STARLINK-34433          
1 64448U 25130L   25266.92525819  .00067716  00000+0  16907-2 0  9990
2 64448  53.1576 145.0626 0001117  48.9882 311.1219 15.39569649 15144
STARLINK-34459          
1 64449U 25130M   25267.04115297  .00076909  00000+0  19154-2 0  9991
2 64449  53.1573 144.3619 0000995  94.9543 265.1576 15.39587265 15164
STARLINK-34361          
1 64450U 25130N   25267.03650941  .00080789  00000+0  20098-2 0  9992
2 64450  53.1575 144.3330 0000875  74.8563 285.2538 15.39598437 16338
STARLINK-34392          
1 64451U 25130P   25266.90203605  .00085392  00000+0  21234-2 0  9997
2 64451  53.1571 144.9158 0001207  39.2334 320.8758 15.39584015 15145
STARLINK-34367          
1 64452U 25130Q   25266.93884810  .00058406  00000+0  14610-2 0  9990
2 64452  53.1574 145.1463 0000853  60.6073 299.5017 15.39577945 15138
STARLINK-34221          
1 64453U 25130R   25267.07796729  .00074905  00000+0  18660-2 0  9999
2 64453  53.1573 144.5948 0000745  68.9811 291.1273 15.39592350 15162
STARLINK-34282          
1 64454U 25130S   25267.04227685  .00043751  00000+0  14820-2 0  9996
2 64454  53.1582 145.0813 0001042  94.4448 265.6672 15.30169075 15154
STARLINK-34295          
1 64455U 25130T   25266.92491782  .00095389  00000+0  23669-2 0  9999
2 64455  53.1577 145.0579 0000284  79.4601 280.6436 15.39594963 15140
STARLINK-34430          
1 64456U 25130U   25267.05010533  .00078556  00000+0  19551-2 0  9998
2 64456  53.1577 144.4158 0000883  70.1285 289.9815 15.39597573 15163
STARLINK-34445          
1 64457U 25130V   25267.04081686  .00072873  00000+0  18164-2 0  9990
2 64457  53.1581 144.3585 0000994  87.1285 272.9834 15.39587697 15162
STARLINK-34439          
1 64458U 25130W   25267.03617328  .00071624  00000+0  17857-2 0  9999
2 64458  53.1571 144.3289 0000799  83.2481 276.8615 15.39587266 15163
STARLINK-34421          
1 64459U 25130X   25266.90169948  .00083165  00000+0  20688-2 0  9994
2 64459  53.1572 144.9119 0001214  42.5961 317.5137 15.39586638 15149
STARLINK-34423          
1 64460U 25130Y   25266.96197348  .00084336  00000+0  20993-2 0  9997
2 64460  53.1569 144.5752 0000797  85.1081 275.0015 15.39559277 15150
STARLINK-34418          
1 64461U 25130Z   25267.08715816  .00074230  00000+0  18488-2 0  9996
2 64461  53.1568 143.9345 0000890  90.7886 269.3221 15.39601256 15172
STARLINK-34336          
1 64462U 25130AA  25266.98961356  .00019813  00000+0  67918-3 0  9996
2 64462  53.1590 145.3898 0001028  66.2522 293.8586 15.30204790 15142
STARLINK-34400          
1 64463U 25130AB  25267.04860763  .00021267  00000+0  72823-3 0  9992
2 64463  53.1596 145.1165 0000819  83.1194 276.9900 15.30194388 15158
STARLINK-34429          
1 64464U 25130AC  25266.94339477  .00068063  00000+0  16987-2 0  9997
2 64464  53.1576 144.4580 0000643  92.0600 268.0479 15.39578927 15153
